NORAD_CAT_ID,OBJECT_NAME,OBJECT_TYPE,EPOCH,MEAN_MOTION,ECCENTRICITY,INCLINATION,RA_OF_ASC_NODE,ARG_OF_PERICENTER,MEAN_ANOMALY,BSTAR,MEAN_MOTION_DOT,MEAN_MOTION_DDOT,TLE_LINE0,TLE_LINE1,TLE_LINE2,SEMIMAJOR_AXIS,PERIOD,APOGEE,PERIGEE,DECAYED
55663.0,STARLINK-5473,PAYLOAD,2024-03-17 14:31:39,14.98331483,0.000266,70.0007,185.0733,258.9853,101.1007,1.5405e-06,-7.5e-07,0.0,0 STARLINK-5473,1 55663U 23021AM  24077.60532313 -.00000075  00000-0  15405-5 0  9999,2 55663  70.0007 185.0733 0002660 258.9853 101.1007 14.98331483 61126,6950.188,96.107,573.902,570.205,0.0
55663.0,STARLINK-5473,PAYLOAD,2024-03-17 17:43:55,14.98352384,0.0002659,70.0009,184.7368,262.2272,97.8586,-0.00028396,-3.481e-05,0.0,0 STARLINK-5473,1 55663U 23021AM  24077.73883593 -.00003481  00000-0 -28396-3 0  9998,2 55663  70.0009 184.7368 0002659 262.2272  97.8586 14.98352384 60843,6950.124,96.106,573.837,570.141,0.0
55663.0,STARLINK-5473,PAYLOAD,2024-03-18 11:21:24,14.98328097,0.0002763,70.0008,182.8851,256.0796,104.0056,5.152e-05,5.22e-06,0.0,0 STARLINK-5473,1 55663U 23021AM  24078.47320290  .00000522  00000-0  51520-4 0  9997,2 55663  70.0008 182.8851 0002763 256.0796 104.0056 14.98328097 60955,6950.199,96.107,573.984,570.143,0.0
55663.0,STARLINK-5473,PAYLOAD,2024-03-19 11:23:24,14.9833869,0.0002671,70.0014,180.3611,250.8696,109.2174,6.2473e-05,6.53e-06,0.0,0 STARLINK-5473,1 55663U 23021AM  24079.47459359  .00000653  00000-0  62473-4 0  9991,2 55663  70.0014 180.3611 0002671 250.8696 109.2174 14.98338690 61407,6950.166,96.106,573.887,570.175,0.0
55663.0,STARLINK-5473,PAYLOAD,2024-03-19 12:59:32,14.98339227,0.0002609,70.0019,180.1939,249.5267,110.5612,7.1011e-05,7.55e-06,0.0,0 STARLINK-5473,1 55663U 23021AM  24079.54135271  .00000755  00000-0  71011-4 0  9994,2 55663  70.0019 180.1939 0002609 249.5267 110.5612 14.98339227 61110,6950.164,96.106,573.843,570.216,0.0
55663.0,STARLINK-5473,PAYLOAD,2024-03-20 09:49:18,14.98323634,0.0003007,70.001,178.0052,268.5699,91.5116,-7.8444e-05,-1.029e-05,0.0,0 STARLINK-5473,1 55663U 23021AM  24080.40924554 -.00001029  00000-0 -78444-4 0  9995,2 55663  70.0010 178.0052 0003007 268.5699  91.5116 14.98323634 61242,6950.213,96.107,574.168,569.988,0.0
55663.0,STARLINK-5473,PAYLOAD,2024-03-20 13:01:34,14.98324391,0.0002944,70.0006,177.6681,266.154,93.9282,-6.9201e-05,-9.18e-06,0.0,0 STARLINK-5473,1 55663U 23021AM  24080.54276522 -.00000918  00000-0 -69201-4 0  9992,2 55663  70.0006 177.6681 0002944 266.1540  93.9282 14.98324391 61564,6950.21,96.107,574.121,570.029,0.0
55663.0,STARLINK-5473,PAYLOAD,2024-03-20 16:13:50,14.98325559,0.0002876,70.0008,177.3318,263.519,96.5641,-5.2496e-05,-7.19e-06,0.0,0 STARLINK-5473,1 55663U 23021AM  24080.67628429 -.00000719  00000-0 -52496-4 0  9990,2 55663  70.0008 177.3318 0002876 263.5190  96.5641 14.98325559 61583,6950.207,96.107,574.071,570.073,0.0
55663.0,STARLINK-5473,PAYLOAD,2024-03-21 00:14:31,14.98333692,0.0003005,70.0005,176.489,269.7463,90.3351,-0.00010561,-1.353e-05,0.0,0 STARLINK-5473,1 55663U 23021AM  24081.01008195 -.00001353  00000-0 -10561-3 0  9992,2 55663  70.0005 176.4890 0003005 269.7463  90.3351 14.98333692 61331,6950.181,96.107,574.135,569.958,0.0
55663.0,STARLINK-5473,PAYLOAD,2024-03-21 13:03:34,14.98341108,0.0003018,70.0004,175.1431,270.3224,89.7589,-5.027e-06,-1.53e-06,0.0,0 STARLINK-5473,1 55663U 23021AM  24081.54415284 -.00000153  00000-0 -50270-5 0  9991,2 55663  70.0004 175.1431 0003018 270.3224  89.7589 14.98341108 61419,6950.159,96.106,574.121,569.926,0.0
55663.0,STARLINK-5473,PAYLOAD,2024-03-21 14:39:42,14.98342809,0.0002985,70.0004,174.9746,270.0341,90.0476,2.3394e-05,1.86e-06,0.0,0 STARLINK-5473,1 55663U 23021AM  24081.61091066  .00000186  00000-0  23394-4 0  9997,2 55663  70.0004 174.9746 0002985 270.0341  90.0476 14.98342809 61727,6950.153,96.106,574.093,569.944,0.0
55663.0,STARLINK-5473,PAYLOAD,2024-03-21 16:15:50,14.98344788,0.0002995,70.0005,174.8061,269.9136,90.168,3.6925e-05,3.48e-06,0.0,0 STARLINK-5473,1 55663U 23021AM  24081.67766860  .00000348  00000-0  36925-4 0  9998,2 55663  70.0005 174.8061 0002995 269.9136  90.1680 14.98344788 61734,6950.147,96.106,574.094,569.931,0.0
55663.0,STARLINK-5473,PAYLOAD,2024-03-22 14:41:43,14.9833839,0.0002695,70.001,172.4497,269.6422,90.4428,0.00026245,3.041e-05,0.0,0 STARLINK-5473,1 55663U 23021AM  24082.61230394  .00003041  00000-0  26245-3 0  9997,2 55663  70.0010 172.4497 0002695 269.6422  90.4428 14.98338390 61879,6950.167,96.106,573.905,570.159,0.0
55663.0,STARLINK-5473,PAYLOAD,2024-03-22 16:17:50,14.98353994,0.0002549,70.0009,172.2814,264.2396,95.8472,5.3133e-05,5.41e-06,0.0,0 STARLINK-5473,1 55663U 23021AM  24082.67905789  .00000541  00000-0  53133-4 0  9999,2 55663  70.0009 172.2814 0002549 264.2396  95.8472 14.98353994 61580,6950.119,96.105,573.755,570.212,0.0
55663.0,STARLINK-5473,PAYLOAD,2024-03-23 05:06:57,14.98321151,0.0002914,70.0009,170.9352,269.0825,91.0,-0.00016361,-2.044e-05,0.0,0 STARLINK-5473,1 55663U 23021AM  24083.21316668 -.00002044  00000-0 -16361-3 0  9995,2 55663  70.0009 170.9352 0002914 269.0825  91.0000 14.98321151 61662,6950.22,96.108,574.111,570.06,0.0
55663.0,STARLINK-5473,PAYLOAD,2024-03-23 16:19:54,14.98323126,0.0002761,70.0009,169.758,267.71,92.3743,-0.00013149,-1.661e-05,0.0,0 STARLINK-5473,1 55663U 23021AM  24083.68048682 -.00001661  00000-0 -13149-3 0  9999,2 55663  70.0009 169.7580 0002761 267.7100  92.3743 14.98323126 62036,6950.214,96.107,573.998,570.16,0.0
55663.0,STARLINK-5473,PAYLOAD,2024-03-24 13:09:36,14.98350792,0.0002449,70.0012,167.5689,263.9388,96.1492,0.00013757,1.55e-05,0.0,0 STARLINK-5473,1 55663U 23021AM  24084.54833961  .00001550  00000-0  13757-3 0  9997,2 55663  70.0012 167.5689 0002449 263.9388  96.1492 14.98350792 61867,6950.129,96.106,573.696,570.292,0.0
55663.0,STARLINK-5473,PAYLOAD,2024-03-24 14:45:44,14.98350699,0.0002072,70.0027,167.4024,256.7347,103.3581,0.00017519,1.999e-05,0.0,0 STARLINK-5473,1 55663U 23021AM  24084.61509853  .00001999  00000-0  17519-3 0  9992,2 55663  70.0027 167.4024 0002072 256.7347 103.3581 14.98350699 62173,6950.129,96.106,573.434,570.554,0.0
55663.0,STARLINK-5473,PAYLOAD,2024-03-25 05:10:58,14.98327474,0.0001575,70.0013,165.8859,268.0349,92.0629,0.00027122,3.144e-05,0.0,0 STARLINK-5473,1 55663U 23021AM  24085.21594963  .00003144  00000-0  27122-3 0  9990,2 55663  70.0013 165.8859 0001575 268.0349  92.0629 14.98327474 61969,6950.201,96.107,573.16,570.971,0.0
55663.0,STARLINK-5473,PAYLOAD,2024-03-25 13:11:39,14.98320496,0.0002949,70.0002,165.0437,269.7483,90.3338,0.0001542,1.747e-05,0.0,0 STARLINK-5473,1 55663U 23021AM  24085.54975853  .00001747  00000-0  15420-3 0  9992,2 55663  70.0002 165.0437 0002949 269.7483  90.3338 14.98320496 62016,6950.222,96.108,574.137,570.038,0.0
55663.0,STARLINK-5473,PAYLOAD,2024-03-25 14:47:47,14.9832199,0.0002904,70.0003,164.8751,268.4008,91.6818,0.0001559,1.767e-05,0.0,0 STARLINK-5473,1 55663U 23021AM  24085.61651781  .00001767  00000-0  15590-3 0  9991,2 55663  70.0003 164.8751 0002904 268.4008  91.6818 14.98321990 62324,6950.218,96.108,574.101,570.064,0.0
55663.0,STARLINK-5473,PAYLOAD,2024-03-26 13:13:41,14.98322181,0.0003033,70.0001,162.5189,273.2582,86.823,-0.00029774,-3.643e-05,0.0,0 STARLINK-5473,1 55663U 23021AM  24086.55117425 -.00003643  00000-0 -29774-3 0  9993,2 55663  70.0001 162.5189 0003033 273.2582  86.8230 14.98322181 62166,6950.217,96.108,574.19,569.974,0.0
55663.0,STARLINK-5473,PAYLOAD,2024-03-26 14:49:49,14.98320208,0.0002796,70.0008,162.3512,271.9166,88.1673,-0.00029667,-3.63e-05,0.0,0 STARLINK-5473,1 55663U 23021AM  24086.61793606 -.00003630  00000-0 -29667-3 0  9998,2 55663  70.0008 162.3512 0002796 271.9166  88.1673 14.98320208 62477,6950.223,96.108,574.031,570.145,0.0
55663.0,STARLINK-5473,PAYLOAD,2024-03-26 22:50:29,14.98330673,0.0003107,70.0001,161.5096,276.6981,83.3824,-0.00023831,-2.935e-05,0.0,0 STARLINK-5473,1 55663U 23021AM  24086.95172882 -.00002935  00000-0 -23831-3 0  9996,2 55663  70.0001 161.5096 0003107 276.6981  83.3824 14.98330673 62520,6950.191,96.107,574.215,569.896,0.0
55663.0,STARLINK-5473,PAYLOAD,2024-03-27 13:15:41,14.98331012,0.0003176,69.9988,159.9938,268.6309,91.4486,0.00026014,3.012e-05,0.0,0 STARLINK-5473,1 55663U 23021AM  24087.55255981  .00003012  00000-0  26014-3 0  9996,2 55663  69.9988 159.9938 0003176 268.6309  91.4486 14.98331012 62317,6950.19,96.107,574.262,569.847,0.0
55663.0,STARLINK-5473,PAYLOAD,2024-03-27 14:51:50,14.9831834,0.0003075,69.9996,159.8255,272.7715,87.3092,9.1619e-05,1e-05,0.0,0 STARLINK-5473,1 55663U 23021AM  24087.61933164  .00001000  00000-0  91619-4 0  9998,2 55663  69.9996 159.8255 0003075 272.7715  87.3092 14.98318340 62329,6950.229,96.108,574.231,569.957,0.0
55663.0,STARLINK-5473,PAYLOAD,2024-03-28 11:41:34,14.98328609,0.000328,69.9993,157.6381,273.8768,86.2016,0.00031238,3.636e-05,0.0,0 STARLINK-5473,1 55663U 23021AM  24088.48720773  .00003636  00000-0  31238-3 0  9991,2 55663  69.9993 157.6381 0003280 273.8768  86.2016 14.98328609 62457,6950.197,96.107,574.342,569.783,0.0
55663.0,STARLINK-5473,PAYLOAD,2024-03-28 14:53:50,14.98332496,0.000318,69.9995,157.3011,274.238,85.8415,0.00035245,4.115e-05,0.0,0 STARLINK-5473,1 55663U 23021AM  24088.62072472  .00004115  00000-0  35245-3 0  9998,2 55663  69.9995 157.3011 0003180 274.2380  85.8415 14.98332496 62772,6950.185,96.107,574.26,569.84,0.0
55663.0,STARLINK-5473,PAYLOAD,2024-03-29 05:19:02,14.98345555,0.0002859,69.9997,155.7862,276.3723,83.7111,0.00010416,1.151e-05,0.0,0 STARLINK-5473,1 55663U 23021AM  24089.22156098  .00001151  00000-0  10416-3 0  9992,2 55663  69.9997 155.7862 0002859 276.3723  83.7111 14.98345555 62563,6950.145,96.106,573.997,570.023,0.0
55663.0,STARLINK-5473,PAYLOAD,2024-03-29 11:43:34,14.98349455,0.0002727,70.0004,155.1139,268.3194,91.7653,0.00016342,1.858e-05,0.0,0 STARLINK-5473,1 55663U 23021AM  24089.48859575  .00001858  00000-0  16342-3 0  9998,2 55663  70.0004 155.1139 0002727 268.3194  91.7653 14.98349455 62904,6950.133,96.106,573.893,570.102,0.0
